[
  {
    "id": "440f45ea-bdd5-ee11-904d-000d3a09d132",
    "code": "45",
    "nameEn": "At Home Program",
    "nameFr": "Programme à domicile",
    "provinceTerritoryStateId": "9c440baa-35b3-eb11-8236-0022486d8d5f"
  },
  {
    "id": "b3f25fea-a7a9-ee11-a569-000d3af4f898",
    "code": "01",
    "nameEn": "Healthy Kids Program",
    "nameFr": "Programme Enfants en bonne santé",
    "provinceTerritoryStateId": "9c440baa-35b3-eb11-8236-0022486d8d5f"
  },
  {
    "id": "b5f25fea-a7a9-ee11-a569-000d3af4f898",
    "code": "02",
    "nameEn": "BC Employment and Assistance (BCEA) Program, including Disability Assistance and Income Assistance",
    "nameFr": "Programme d'emploi et de soutien de la Colombie-Britannique, incluant Aide aux personnes handicapées et Aide au revenu",
    "provinceTerritoryStateId": "9c440baa-35b3-eb11-8236-0022486d8d5f"
  },
  {
    "id": "b7f25fea-a7a9-ee11-a569-000d3af4f898",
    "code": "03",
    "nameEn": "Children in Care and Youth Agreements – Post Majority",
    "nameFr": "Accords sur les enfants pris en charge et les jeunes après l'âge de majorité",
    "provinceTerritoryStateId": "9c440baa-35b3-eb11-8236-0022486d8d5f"
  },
  {
    "id": "bbf25fea-a7a9-ee11-a569-000d3af4f898",
    "code": "04",
    "nameEn": "Alberta Child Health Benefit",
    "nameFr": "Prestations de santé pour enfants de l'Alberta",
    "provinceTerritoryStateId": "3b17d494-35b3-eb11-8236-0022486d8d5f"
  },
  {
    "id": "bdf25fea-a7a9-ee11-a569-000d3af4f898",
    "code": "05",
    "nameEn": "Alberta Adult Health Benefit",
    "nameFr": "Prestations de santé pour adultes de l'Alberta",
    "provinceTerritoryStateId": "3b17d494-35b3-eb11-8236-0022486d8d5f"
  },
  {
    "id": "bff25fea-a7a9-ee11-a569-000d3af4f898",
    "code": "06",
    "nameEn": "Income and Employment Supports",
    "nameFr": "Soutien au revenu et à l'emploi",
    "provinceTerritoryStateId": "3b17d494-35b3-eb11-8236-0022486d8d5f"
  },
  {
    "id": "c1f25fea-a7a9-ee11-a569-000d3af4f898",
    "code": "07",
    "nameEn": "Child Intervention Services",
    "nameFr": "Services d'intervention auprès des enfants",
    "provinceTerritoryStateId": "3b17d494-35b3-eb11-8236-0022486d8d5f"
  },
  {
    "id": "c3f25fea-a7a9-ee11-a569-000d3af4f898",
    "code": "08",
    "nameEn": "Assured Income for the Severely Handicapped  (AISH)",
    "nameFr": "Programme de revenu assuré pour les personnes gravement handicapées",
    "provinceTerritoryStateId": "3b17d494-35b3-eb11-8236-0022486d8d5f"
  },
  {
    "id": "c5f25fea-a7a9-ee11-a569-000d3af4f898",
    "code": "09",
    "nameEn": "Family Support for Children with Disabilities",
    "nameFr": "Programme de soutien aux familles d'enfants handicapés",
    "provinceTerritoryStateId": "3b17d494-35b3-eb11-8236-0022486d8d5f"
  },
  {
    "id": "c7f25fea-a7a9-ee11-a569-000d3af4f898",
    "code": "10",
    "nameEn": "Supports for Permanency (Orthodontic)",
    "nameFr": "Soutien des services permanents  (orthodontique)",
    "provinceTerritoryStateId": "3b17d494-35b3-eb11-8236-0022486d8d5f"
  },
  {
    "id": "c9f25fea-a7a9-ee11-a569-000d3af4f898",
    "code": "11",
    "nameEn": "Dental and Optical Assistance for Seniors",
    "nameFr": "Programmes de soins dentaires et de soins de la vue pour les aînés",
    "provinceTerritoryStateId": "3b17d494-35b3-eb11-8236-0022486d8d5f"
  },
  {
    "id": "cbf25fea-a7a9-ee11-a569-000d3af4f898",
    "code": "12",
    "nameEn": "Supplementary Health (SH) Benefits",
    "nameFr": "Programme de prestations supplémentaires en santé",
    "provinceTerritoryStateId": "5bc09caf-38b3-eb11-8236-0022486d8d5f"
  },
  {
    "id": "cdf25fea-a7a9-ee11-a569-000d3af4f898",
    "code": "13",
    "nameEn": "Family Health (FH) Benefits",
    "nameFr": "Prestations de santé familiale",
    "provinceTerritoryStateId": "5bc09caf-38b3-eb11-8236-0022486d8d5f"
  },
  {
    "id": "cff25fea-a7a9-ee11-a569-000d3af4f898",
    "code": "14",
    "nameEn": "Dental services for Employment and Income Assistance (EIA) and Manitoba Supports for Persons with Disabilities (MSPD)",
    "nameFr": "Soins dentaires pour le Programme de l'Aide à l'emploi et au revenu et Soutien au revenu pour personne handicapée",
    "provinceTerritoryStateId": "6d861c55-36b3-eb11-8236-0022486d8d5f"
  },
  {
    "id": "d3f25fea-a7a9-ee11-a569-000d3af4f898",
    "code": "15",
    "nameEn": "Healthy Smiles Ontario (HSO)",
    "nameFr": "Beaux sourires Ontario",
    "provinceTerritoryStateId": "daf4d05b-37b3-eb11-8236-0022486d8d5f"
  },
  {
    "id": "d5f25fea-a7a9-ee11-a569-000d3af4f898",
    "code": "16",
    "nameEn": "Ontario Seniors Dental Care Program (OSDCP)",
    "nameFr": "Programme ontarien de soins dentaires pour les aînés (POSDA)",
    "provinceTerritoryStateId": "daf4d05b-37b3-eb11-8236-0022486d8d5f"
  },
  {
    "id": "d7f25fea-a7a9-ee11-a569-000d3af4f898",
    "code": "17",
    "nameEn": "Ontario Works  (OW)",
    "nameFr": "L'Ontario au travail",
    "provinceTerritoryStateId": "daf4d05b-37b3-eb11-8236-0022486d8d5f"
  },
  {
    "id": "d9f25fea-a7a9-ee11-a569-000d3af4f898",
    "code": "18",
    "nameEn": "Ontario Disability Support Program  (ODSP)",
    "nameFr": "Programme ontarien de soutien aux personnes handicapées (POSPH)",
    "provinceTerritoryStateId": "daf4d05b-37b3-eb11-8236-0022486d8d5f"
  },
  {
    "id": "dbf25fea-a7a9-ee11-a569-000d3af4f898",
    "code": "19",
    "nameEn": "Quebec Health Insurance Board (QHIB) - Dental Services - recipients of a financial assistance program with claim slip and their dependants",
    "nameFr": "Régie de l'assurance maladie du Québec (RAMQ) - Services dentaires - prestataires d'un programme de laide financière avec carnet de réclamation et les personnes à charge",
    "provinceTerritoryStateId": "39449f70-37b3-eb11-8236-0022486d8d5f"
  },
  {
    "id": "ddf25fea-a7a9-ee11-a569-000d3af4f898",
    "code": "20",
    "nameEn": "Quebec Health Insurance Board (QHIB) - Dental services - Children under age 10",
    "nameFr": "Régie de l'assurance maladie du Québec (RAMQ) - Services dentaires - Enfants de moins de 10 ans",
    "provinceTerritoryStateId": "39449f70-37b3-eb11-8236-0022486d8d5f"
  },
  {
    "id": "e5f25fea-a7a9-ee11-a569-000d3af4f898",
    "code": "24",
    "nameEn": "Healthy Smiles Clear Vision",
    "nameFr": "De beaux sourires et une bonne vision",
    "provinceTerritoryStateId": "23dc27a2-36b3-eb11-8236-0022486d8d5f"
  },
  {
    "id": "e7f25fea-a7a9-ee11-a569-000d3af4f898",
    "code": "25",
    "nameEn": "Health Services Dental Program",
    "nameFr": "Services de santé - Programme de soins dentaires",
    "provinceTerritoryStateId": "23dc27a2-36b3-eb11-8236-0022486d8d5f"
  },
  {
    "id": "e9f25fea-a7a9-ee11-a569-000d3af4f898",
    "code": "26",
    "nameEn": "Employment Support and Income Assistance  (ESIA)",
    "nameFr": "Soutien à l'emploi et aide au revenu",
    "provinceTerritoryStateId": "fc2243c9-36b3-eb11-8236-0022486d8d5f"
  },
  {
    "id": "ebf25fea-a7a9-ee11-a569-000d3af4f898",
    "code": "27",
    "nameEn": "Individuals with Special Needs Oral Health Program",
    "nameFr": "Programme de santé buccodentaire pour les personnes ayant des besoins particuliers",
    "provinceTerritoryStateId": "fc2243c9-36b3-eb11-8236-0022486d8d5f"
  },
  {
    "id": "edf25fea-a7a9-ee11-a569-000d3af4f898",
    "code": "28",
    "nameEn": "Children's Oral Health Program",
    "nameFr": "Programme de santé buccodentaire pour les enfants",
    "provinceTerritoryStateId": "fc2243c9-36b3-eb11-8236-0022486d8d5f"
  },
  {
    "id": "eff25fea-a7a9-ee11-a569-000d3af4f898",
    "code": "29",
    "nameEn": "Cleft Palate-Craniofacial Program",
    "nameFr": "Programme pour les personnes ayant une fissure palatine ou les anomalies crâniofaciales",
    "provinceTerritoryStateId": "fc2243c9-36b3-eb11-8236-0022486d8d5f"
  },
  {
    "id": "f1f25fea-a7a9-ee11-a569-000d3af4f898",
    "code": "30",
    "nameEn": "Maxillofacial Prosthodontics Program",
    "nameFr": "Programme pour les personnes ayant besoin de prothèses maxillo-faciales",
    "provinceTerritoryStateId": "fc2243c9-36b3-eb11-8236-0022486d8d5f"
  },
  {
    "id": "f3f25fea-a7a9-ee11-a569-000d3af4f898",
    "code": "31",
    "nameEn": "Disability Support Program  (DSP)",
    "nameFr": "Programme de soutien aux personnes handicapées",
    "provinceTerritoryStateId": "fc2243c9-36b3-eb11-8236-0022486d8d5f"
  },
  {
    "id": "f5f25fea-a7a9-ee11-a569-000d3af4f898",
    "code": "32",
    "nameEn": "Oral and Maxillofacial Surgery Program",
    "nameFr": "Programme de chirurgie buccale et maxillo-faciale",
    "provinceTerritoryStateId": "fc2243c9-36b3-eb11-8236-0022486d8d5f"
  },
  {
    "id": "f7f25fea-a7a9-ee11-a569-000d3af4f898",
    "code": "33",
    "nameEn": "Children's Dental Health Program",
    "nameFr": "Programme de santé dentaire pour les enfants",
    "provinceTerritoryStateId": "5abc28c9-38b3-eb11-8236-0022486d8d5f"
  },
  {
    "id": "f9f25fea-a7a9-ee11-a569-000d3af4f898",
    "code": "34",
    "nameEn": "Income Support Program",
    "nameFr": "Programme de soutien du revenu",
    "provinceTerritoryStateId": "5abc28c9-38b3-eb11-8236-0022486d8d5f"
  },
  {
    "id": "fbf25fea-a7a9-ee11-a569-000d3af4f898",
    "code": "35",
    "nameEn": "Low-income (Access) Program",
    "nameFr": "Programme (accès) pour les personnes à faible revenu",
    "provinceTerritoryStateId": "5abc28c9-38b3-eb11-8236-0022486d8d5f"
  },
  {
    "id": "fdf25fea-a7a9-ee11-a569-000d3af4f898",
    "code": "36",
    "nameEn": "Adult Dental Program",
    "nameFr": "Programme de santé dentaire pour les adultes",
    "provinceTerritoryStateId": "5abc28c9-38b3-eb11-8236-0022486d8d5f"
  },
  {
    "id": "fff25fea-a7a9-ee11-a569-000d3af4f898",
    "code": "37",
    "nameEn": "The Provincial Dental Care Program",
    "nameFr": "Programme provincial de soins dentaires",
    "provinceTerritoryStateId": "3b8110df-38b3-eb11-8236-0022486d8d5f"
  },
  {
    "id": "01f35fea-a7a9-ee11-a569-000d3af4f898",
    "code": "38",
    "nameEn": "Cleft Palate Orthodontic Funding Program",
    "nameFr": "Programme de financement de soins orthodontiques pour fissure palatine",
    "provinceTerritoryStateId": "3b8110df-38b3-eb11-8236-0022486d8d5f"
  },
  {
    "id": "03f35fea-a7a9-ee11-a569-000d3af4f898",
    "code": "39",
    "nameEn": "Yukon Dental Program",
    "nameFr": "Programme yukonnais de soins dentaires",
    "provinceTerritoryStateId": "8fef32b7-39b3-eb11-8236-0022486d8d5f"
  },
  {
    "id": "05f35fea-a7a9-ee11-a569-000d3af4f898",
    "code": "40",
    "nameEn": "Yukon Children's Dental Program",
    "nameFr": "Programme yukonnais de soins dentaires pour enfants",
    "provinceTerritoryStateId": "8fef32b7-39b3-eb11-8236-0022486d8d5f"
  },
  {
    "id": "07f35fea-a7a9-ee11-a569-000d3af4f898",
    "code": "41",
    "nameEn": "Extended Health Care Benefits for Seniors",
    "nameFr": "Régime d'assurance-santé complémentaire pour les personnes âgées",
    "provinceTerritoryStateId": "8fef32b7-39b3-eb11-8236-0022486d8d5f"
  },
  {
    "id": "09f35fea-a7a9-ee11-a569-000d3af4f898",
    "code": "42",
    "nameEn": "Métis Health Benefits",
    "nameFr": "Régime d'assurance-maladie pour les Métis",
    "provinceTerritoryStateId": "6026aca2-39b3-eb11-8236-0022486d8d5f"
  },
  {
    "id": "0bf35fea-a7a9-ee11-a569-000d3af4f898",
    "code": "43",
    "nameEn": "Extended Health Benefits",
    "nameFr": "Régime d'assurance-maladie complémentaire",
    "provinceTerritoryStateId": "6026aca2-39b3-eb11-8236-0022486d8d5f"
  },
  {
    "id": "0df35fea-a7a9-ee11-a569-000d3af4f898",
    "code": "44",
    "nameEn": "Extended Health Benefits (EHB)",
    "nameFr": "Prestations d'assurance-maladie complémentaire (PAMC)",
    "provinceTerritoryStateId": "9936c08e-39b3-eb11-8236-0022486d8d5f"
  }
]
